SL-4 R/B                
1 39679U 14021B   26062.20064179  .00018805  00000+0  41513-3 0  9995
2 39679  51.6082   8.9286 0098097  79.3446 281.8567 15.38921077655272
ALOS-2                  
1 39766U 14029A   26062.90246994  .00001663  00000+0  22945-3 0  9996
2 39766  97.9203 161.5837 0001513  99.7980 260.3402 14.79474078636010
YAOGAN-29               
1 41038U 15069A   26062.99186073  .00000401  00000+0  56023-4 0  9990
2 41038  98.0149  91.4057 0002238  45.8820 314.2577 14.82987923555037
ASTRO-H (HITOMI)        
1 41337U 16012A   26062.94917524  .00005095  00000+0  30032-3 0  9994
2 41337  31.0005  33.5896 0010021 274.0710  85.8782 15.09956028551361
HXMT (HUIYAN)           
1 42758U 17034A   26062.98508242  .00007662  00000+0  38317-3 0  9990
2 42758  43.0149  48.3853 0032327 201.0058 158.9464 15.17372610481679
SAOCOM 1A               
1 43641U 18076A   26062.95460434  .00001379  00000+0  17977-3 0  9994
2 43641  97.8882 251.2081 0001328  81.8874 278.2490 14.82164563400513
H-2A R/B                
1 43682U 18084L   26062.56494691  .00025622  00000+0  61481-3 0  9993
2 43682  98.8736 278.6455 0025829  46.0108 314.3257 15.41030375404831
SAOCOM 1B               
1 46265U 20059A   26062.98582766  .00000382  00000+0  54474-4 0  9996
2 46265  97.8881 250.3369 0001441  80.6161 279.5215 14.82164788297903
CSS (TIANHE)            
1 48274U 21035A   26062.95572432  .00034693  00000+0  41303-3 0  9997
2 48274  41.4657 243.0428 0006812 239.4436 120.5731 15.60371210276713
COSMOS 2550             
1 48865U 21056A   26063.03989117 -.00000196  00000+0 -14315-6 0  9997
2 48865  67.1422  58.0219 0008335 268.9633  91.0567 15.33830220262595
CZ-2C R/B               
1 52794U 22058K   26062.91807637  .00041631  00000+0  61698-3 0  9998
2 52794  50.1904 347.9678 0042223 176.4053 183.7228 15.53741292209237
CZ-2C R/B               
1 54039U 22132E   26062.92470768  .00056745  00000+0  66030-3 0  9994
2 54039  97.2956  66.0687 0020744 109.5338 250.8162 15.61267902189472
