CCSDS_OMM_VERS = 2.0
CREATION_DATE  = 
ORIGINATOR     = 

OBJECT_NAME    = SL-4 R/B
OBJECT_ID      = 2014-021B
CENTER_NAME    = EARTH
REF_FRAME      = TEME
TIME_SYSTEM    = UTC
MEAN_ELEMENT_THEORY = SGP/SGP4

EPOCH          = 2026-03-03T04:48:55.450656
MEAN_MOTION    = 15.38921077
ECCENTRICITY   = .00980977
INCLINATION    = 51.6082
RA_OF_ASC_NODE = 8.9286
ARG_OF_PERICENTER = 79.3446
MEAN_ANOMALY   = 281.8567

EPHEMERIS_TYPE = 0
CLASSIFICATION_TYPE = U
NORAD_CAT_ID   = 39679
ELEMENT_SET_NO = 999
REV_AT_EPOCH   = 65527
BSTAR          = .41513473E-3
MEAN_MOTION_DOT = .18805E-3
MEAN_MOTION_DDOT = 0

CCSDS_OMM_VERS = 2.0
CREATION_DATE  = 
ORIGINATOR     = 

OBJECT_NAME    = ALOS-2
OBJECT_ID      = 2014-029A
CENTER_NAME    = EARTH
REF_FRAME      = TEME
TIME_SYSTEM    = UTC
MEAN_ELEMENT_THEORY = SGP/SGP4

EPOCH          = 2026-03-03T21:39:33.402816
MEAN_MOTION    = 14.79474078
ECCENTRICITY   = .00015132
INCLINATION    = 97.9203
RA_OF_ASC_NODE = 161.5837
ARG_OF_PERICENTER = 99.7980
MEAN_ANOMALY   = 260.3402

EPHEMERIS_TYPE = 0
CLASSIFICATION_TYPE = U
NORAD_CAT_ID   = 39766
ELEMENT_SET_NO = 999
REV_AT_EPOCH   = 63601
BSTAR          = .22945225E-3
MEAN_MOTION_DOT = .1663E-4
MEAN_MOTION_DDOT = 0

CCSDS_OMM_VERS = 2.0
CREATION_DATE  = 
ORIGINATOR     = 

OBJECT_NAME    = YAOGAN-29
OBJECT_ID      = 2015-069A
CENTER_NAME    = EARTH
REF_FRAME      = TEME
TIME_SYSTEM    = UTC
MEAN_ELEMENT_THEORY = SGP/SGP4

EPOCH          = 2026-03-03T23:48:16.767072
MEAN_MOTION    = 14.82987923
ECCENTRICITY   = .00022383
INCLINATION    = 98.0149
RA_OF_ASC_NODE = 91.4057
ARG_OF_PERICENTER = 45.8820
MEAN_ANOMALY   = 314.2577

EPHEMERIS_TYPE = 0
CLASSIFICATION_TYPE = U
NORAD_CAT_ID   = 41038
ELEMENT_SET_NO = 999
REV_AT_EPOCH   = 55503
BSTAR          = .56022633E-4
MEAN_MOTION_DOT = .401E-5
MEAN_MOTION_DDOT = 0

CCSDS_OMM_VERS = 2.0
CREATION_DATE  = 
ORIGINATOR     = 

OBJECT_NAME    = ASTRO-H (HITOMI)
OBJECT_ID      = 2016-012A
CENTER_NAME    = EARTH
REF_FRAME      = TEME
TIME_SYSTEM    = UTC
MEAN_ELEMENT_THEORY = SGP/SGP4

EPOCH          = 2026-03-03T22:46:48.740736
MEAN_MOTION    = 15.09956028
ECCENTRICITY   = .00100214
INCLINATION    = 31.0005
RA_OF_ASC_NODE = 33.5896
ARG_OF_PERICENTER = 274.0710
MEAN_ANOMALY   = 85.8782

EPHEMERIS_TYPE = 0
CLASSIFICATION_TYPE = U
NORAD_CAT_ID   = 41337
ELEMENT_SET_NO = 999
REV_AT_EPOCH   = 55136
BSTAR          = .30032468E-3
MEAN_MOTION_DOT = .5095E-4
MEAN_MOTION_DDOT = 0

CCSDS_OMM_VERS = 2.0
CREATION_DATE  = 
ORIGINATOR     = 

OBJECT_NAME    = HXMT (HUIYAN)
OBJECT_ID      = 2017-034A
CENTER_NAME    = EARTH
REF_FRAME      = TEME
TIME_SYSTEM    = UTC
MEAN_ELEMENT_THEORY = SGP/SGP4

EPOCH          = 2026-03-03T23:38:31.121088
MEAN_MOTION    = 15.17372610
ECCENTRICITY   = .00323275
INCLINATION    = 43.0149
RA_OF_ASC_NODE = 48.3853
ARG_OF_PERICENTER = 201.0058
MEAN_ANOMALY   = 158.9464

EPHEMERIS_TYPE = 0
CLASSIFICATION_TYPE = U
NORAD_CAT_ID   = 42758
ELEMENT_SET_NO = 999
REV_AT_EPOCH   = 48167
BSTAR          = .3831653E-3
MEAN_MOTION_DOT = .7662E-4
MEAN_MOTION_DDOT = 0

CCSDS_OMM_VERS = 2.0
CREATION_DATE  = 
ORIGINATOR     = 

OBJECT_NAME    = SAOCOM 1A
OBJECT_ID      = 2018-076A
CENTER_NAME    = EARTH
REF_FRAME      = TEME
TIME_SYSTEM    = UTC
MEAN_ELEMENT_THEORY = SGP/SGP4

EPOCH          = 2026-03-03T22:54:37.814976
MEAN_MOTION    = 14.82164563
ECCENTRICITY   = .00013285
INCLINATION    = 97.8882
RA_OF_ASC_NODE = 251.2081
ARG_OF_PERICENTER = 81.8874
MEAN_ANOMALY   = 278.2490

EPHEMERIS_TYPE = 0
CLASSIFICATION_TYPE = U
NORAD_CAT_ID   = 43641
ELEMENT_SET_NO = 999
REV_AT_EPOCH   = 40051
BSTAR          = .17977384E-3
MEAN_MOTION_DOT = .1379E-4
MEAN_MOTION_DDOT = 0

CCSDS_OMM_VERS = 2.0
CREATION_DATE  = 
ORIGINATOR     = 

OBJECT_NAME    = H-2A R/B
OBJECT_ID      = 2018-084L
CENTER_NAME    = EARTH
REF_FRAME      = TEME
TIME_SYSTEM    = UTC
MEAN_ELEMENT_THEORY = SGP/SGP4

EPOCH          = 2026-03-03T13:33:31.413024
MEAN_MOTION    = 15.41030375
ECCENTRICITY   = .0025829
INCLINATION    = 98.8736
RA_OF_ASC_NODE = 278.6455
ARG_OF_PERICENTER = 46.0108
MEAN_ANOMALY   = 314.3257

EPHEMERIS_TYPE = 0
CLASSIFICATION_TYPE = U
NORAD_CAT_ID   = 43682
ELEMENT_SET_NO = 999
REV_AT_EPOCH   = 40483
BSTAR          = .61481E-3
MEAN_MOTION_DOT = .25622E-3
MEAN_MOTION_DDOT = 0

CCSDS_OMM_VERS = 2.0
CREATION_DATE  = 
ORIGINATOR     = 

OBJECT_NAME    = SAOCOM 1B
OBJECT_ID      = 2020-059A
CENTER_NAME    = EARTH
REF_FRAME      = TEME
TIME_SYSTEM    = UTC
MEAN_ELEMENT_THEORY = SGP/SGP4

EPOCH          = 2026-03-03T23:39:35.509824
MEAN_MOTION    = 14.82164788
ECCENTRICITY   = .0001441
INCLINATION    = 97.8881
RA_OF_ASC_NODE = 250.3369
ARG_OF_PERICENTER = 80.6161
MEAN_ANOMALY   = 279.5215

EPHEMERIS_TYPE = 0
CLASSIFICATION_TYPE = U
NORAD_CAT_ID   = 46265
ELEMENT_SET_NO = 999
REV_AT_EPOCH   = 29790
BSTAR          = .54473606E-4
MEAN_MOTION_DOT = .382E-5
MEAN_MOTION_DDOT = 0

CCSDS_OMM_VERS = 2.0
CREATION_DATE  = 
ORIGINATOR     = 

OBJECT_NAME    = CSS (TIANHE)
OBJECT_ID      = 2021-035A
CENTER_NAME    = EARTH
REF_FRAME      = TEME
TIME_SYSTEM    = UTC
MEAN_ELEMENT_THEORY = SGP/SGP4

EPOCH          = 2026-03-03T22:56:14.581248
MEAN_MOTION    = 15.60371210
ECCENTRICITY   = .00068122
INCLINATION    = 41.4657
RA_OF_ASC_NODE = 243.0428
ARG_OF_PERICENTER = 239.4436
MEAN_ANOMALY   = 120.5731

EPHEMERIS_TYPE = 0
CLASSIFICATION_TYPE = U
NORAD_CAT_ID   = 48274
ELEMENT_SET_NO = 999
REV_AT_EPOCH   = 27671
BSTAR          = .41302661E-3
MEAN_MOTION_DOT = .34693E-3
MEAN_MOTION_DDOT = 0

CCSDS_OMM_VERS = 2.0
CREATION_DATE  = 
ORIGINATOR     = 

OBJECT_NAME    = COSMOS 2550
OBJECT_ID      = 2021-056A
CENTER_NAME    = EARTH
REF_FRAME      = TEME
TIME_SYSTEM    = UTC
MEAN_ELEMENT_THEORY = SGP/SGP4

EPOCH          = 2026-03-04T00:57:26.597088
MEAN_MOTION    = 15.33830220
ECCENTRICITY   = .0008335
INCLINATION    = 67.1422
RA_OF_ASC_NODE = 58.0219
ARG_OF_PERICENTER = 268.9633
MEAN_ANOMALY   = 91.0567

EPHEMERIS_TYPE = 0
CLASSIFICATION_TYPE = U
NORAD_CAT_ID   = 48865
ELEMENT_SET_NO = 999
REV_AT_EPOCH   = 26259
BSTAR          = -.14315E-6
MEAN_MOTION_DOT = -.196E-5
MEAN_MOTION_DDOT = 0

CCSDS_OMM_VERS = 2.0
CREATION_DATE  = 
ORIGINATOR     = 

OBJECT_NAME    = CZ-2C R/B
OBJECT_ID      = 2022-058K
CENTER_NAME    = EARTH
REF_FRAME      = TEME
TIME_SYSTEM    = UTC
MEAN_ELEMENT_THEORY = SGP/SGP4

EPOCH          = 2026-03-03T22:02:01.798368
MEAN_MOTION    = 15.53741292
ECCENTRICITY   = .00422236
INCLINATION    = 50.1904
RA_OF_ASC_NODE = 347.9678
ARG_OF_PERICENTER = 176.4053
MEAN_ANOMALY   = 183.7228

EPHEMERIS_TYPE = 0
CLASSIFICATION_TYPE = U
NORAD_CAT_ID   = 52794
ELEMENT_SET_NO = 999
REV_AT_EPOCH   = 20923
BSTAR          = .61698114E-3
MEAN_MOTION_DOT = .41631E-3
MEAN_MOTION_DDOT = 0

CCSDS_OMM_VERS = 2.0
CREATION_DATE  = 
ORIGINATOR     = 

OBJECT_NAME    = CZ-2C R/B
OBJECT_ID      = 2022-132E
CENTER_NAME    = EARTH
REF_FRAME      = TEME
TIME_SYSTEM    = UTC
MEAN_ELEMENT_THEORY = SGP/SGP4

EPOCH          = 2026-03-03T22:11:34.743552
MEAN_MOTION    = 15.61267902
ECCENTRICITY   = .00207449
INCLINATION    = 97.2956
RA_OF_ASC_NODE = 66.0687
ARG_OF_PERICENTER = 109.5338
MEAN_ANOMALY   = 250.8162

EPHEMERIS_TYPE = 0
CLASSIFICATION_TYPE = U
NORAD_CAT_ID   = 54039
ELEMENT_SET_NO = 999
REV_AT_EPOCH   = 18947
BSTAR          = .66030284E-3
MEAN_MOTION_DOT = .56745E-3
MEAN_MOTION_DDOT = 0

